*******************************************************************************
Ephemeris / WWW_USER Mon Jul 15 19:35:33 2024 Pasadena, USA      / Horizons    
*******************************************************************************
Target body name: (2015 BP519)                    {source: JPL#11}
Center body name: Earth (399)                     {source: DE441}
Center-site name: Gemini South Obs., Cerro Pachon
*******************************************************************************
Start time      : A.D. 2018-Oct-16 23:02:00.0000 UT      
Stop  time      : A.D. 2018-Oct-17 09:54:00.0000 UT      
Step-size       : 1 minutes
*******************************************************************************
Target pole/equ : undefined
Target radii    : undefined                                                    
Center geodetic : 289.2634, -30.2406227, 2.71233  {E-lon(deg),Lat(deg),Alt(km)}
Center cylindric: 289.2634,5517.21435,-3194.81213 {E-lon(deg),Dxy(km),Dz(km)}
Center pole/equ : ITRF93                          {East-longitude positive}
Center radii    : 6378.137, 6378.137, 6356.752 km {Equator_a, b, pole_c}       
Target primary  : Sun
Vis. interferer : MOON (R_eq= 1737.400) km        {source: DE441}
Rel. light bend : Sun                             {source: DE441}
Rel. lght bnd GM: 1.3271E+11 km^3/s^2                                          
Small-body perts: Yes                             {source: SB441-N16}
Atmos refraction: NO (AIRLESS)
RA format       : HMS
Time format     : CAL 
Calendar mode   : Mixed Julian/Gregorian
RTS-only print  : NO       
EOP file        : eop.240715.p241008                                           
EOP coverage    : DATA-BASED 1962-JAN-20 TO 2024-JUL-15. PREDICTS-> 2024-OCT-07
Units conversion: 1 au= 149597870.700 km, c= 299792.458 km/s, 1 day= 86400.0 s 
Table cut-offs 1: Elevation (-90.0deg=NO ),Airmass (>38.000=NO), Daylight (YES)
Table cut-offs 2: Solar elongation (  0.0,180.0=NO ),Local Hour Angle( 0.0=NO )
Table cut-offs 3: RA/DEC angular rate (     0.0=NO )                           
*******************************************************************************
Initial IAU76/J2000 heliocentric ecliptic osculating elements (au, days, deg.):
  EPOCH=  2459185.5 ! 2020-Dec-02.00 (TDB)         Residual RMS= .076636       
   EC= .9196800569382362   QR= 35.27062259520413   TP= 2473034.2681888649      
   OM= 135.0361763364557   W=  348.1354702472351   IN= 54.13300168900849       
  Equivalent ICRF heliocentric cartesian coordinates (au, au/d):
   X= 1.527332710437156E+01  Y= 4.057000090505051E+01  Z=-2.695001507835700E+01
  VX=-2.654302427537234E-03 VY= 4.512065776218028E-05 VZ= 1.968031006040699E-03
Asteroid physical parameters (km, seconds, rotational period in hours):        
   GM= n.a.                RAD= n.a.               ROTPER= n.a.                
   H= 4.34                 G= .150                 B-V= n.a.                   
                           ALBEDO= n.a.            STYP= n.a.                  
*******************************************************************************
 Date__(UT)__HR:MN     R.A._________(ICRF)_________DEC
******************************************************
$$SOE
 2018-Oct-17 07:14     04 31 03.666045 -33 25 11.35884
 2018-Oct-17 07:15     04 31 03.663875 -33 25 11.38629
 2018-Oct-17 07:16     04 31 03.661706 -33 25 11.41375
 2018-Oct-17 07:17     04 31 03.659536 -33 25 11.44120
 2018-Oct-17 07:18     04 31 03.657366 -33 25 11.46865
 2018-Oct-17 07:19     04 31 03.655196 -33 25 11.49609
 2018-Oct-17 07:20     04 31 03.653027 -33 25 11.52354
 2018-Oct-17 07:21     04 31 03.650857 -33 25 11.55098
 2018-Oct-17 07:22     04 31 03.648687 -33 25 11.57842
 2018-Oct-17 07:23     04 31 03.646517 -33 25 11.60586
 2018-Oct-17 07:24     04 31 03.644347 -33 25 11.63330
 2018-Oct-17 07:25     04 31 03.642177 -33 25 11.66074
 2018-Oct-17 07:26     04 31 03.640007 -33 25 11.68817
 2018-Oct-17 07:27     04 31 03.637837 -33 25 11.71560
 2018-Oct-17 07:28     04 31 03.635666 -33 25 11.74304
 2018-Oct-17 07:29     04 31 03.633496 -33 25 11.77046
 2018-Oct-17 07:30     04 31 03.631326 -33 25 11.79789
 2018-Oct-17 07:31     04 31 03.629156 -33 25 11.82532
 2018-Oct-17 07:32  t  04 31 03.626985 -33 25 11.85274
 2018-Oct-17 07:33     04 31 03.624815 -33 25 11.88016
 2018-Oct-17 07:34     04 31 03.622645 -33 25 11.90758
 2018-Oct-17 07:35     04 31 03.620474 -33 25 11.93500
 2018-Oct-17 07:36     04 31 03.618304 -33 25 11.96241
 2018-Oct-17 07:37     04 31 03.616133 -33 25 11.98983
 2018-Oct-17 07:38     04 31 03.613963 -33 25 12.01724
 2018-Oct-17 07:39     04 31 03.611792 -33 25 12.04465
 2018-Oct-17 07:40     04 31 03.609622 -33 25 12.07206
 2018-Oct-17 07:41     04 31 03.607451 -33 25 12.09947
 2018-Oct-17 07:42     04 31 03.605281 -33 25 12.12687
 2018-Oct-17 07:43     04 31 03.603110 -33 25 12.15428
 2018-Oct-17 07:44     04 31 03.600940 -33 25 12.18168
 2018-Oct-17 07:45     04 31 03.598769 -33 25 12.20908
 2018-Oct-17 07:46     04 31 03.596598 -33 25 12.23647
 2018-Oct-17 07:47     04 31 03.594428 -33 25 12.26387
 2018-Oct-17 07:48     04 31 03.592257 -33 25 12.29126
 2018-Oct-17 07:49     04 31 03.590086 -33 25 12.31866
 2018-Oct-17 07:50     04 31 03.587915 -33 25 12.34605
 2018-Oct-17 07:51     04 31 03.585745 -33 25 12.37344
 2018-Oct-17 07:52     04 31 03.583574 -33 25 12.40082
 2018-Oct-17 07:53     04 31 03.581403 -33 25 12.42821
 2018-Oct-17 07:54     04 31 03.579232 -33 25 12.45559
 2018-Oct-17 07:55     04 31 03.577061 -33 25 12.48297
 2018-Oct-17 07:56     04 31 03.574891 -33 25 12.51035
 2018-Oct-17 07:57     04 31 03.572720 -33 25 12.53773
 2018-Oct-17 07:58     04 31 03.570549 -33 25 12.56510
 2018-Oct-17 07:59     04 31 03.568378 -33 25 12.59248
 2018-Oct-17 08:00     04 31 03.566207 -33 25 12.61985
 2018-Oct-17 08:01     04 31 03.564036 -33 25 12.64722
 2018-Oct-17 08:02     04 31 03.561866 -33 25 12.67459
 2018-Oct-17 08:03     04 31 03.559695 -33 25 12.70196
 2018-Oct-17 08:04     04 31 03.557524 -33 25 12.72932
 2018-Oct-17 08:05     04 31 03.555353 -33 25 12.75668
 2018-Oct-17 08:06     04 31 03.553182 -33 25 12.78405
 2018-Oct-17 08:07     04 31 03.551011 -33 25 12.81141
 2018-Oct-17 08:08     04 31 03.548840 -33 25 12.83876
 2018-Oct-17 08:09     04 31 03.546669 -33 25 12.86612
 2018-Oct-17 08:10     04 31 03.544499 -33 25 12.89347
 2018-Oct-17 08:11     04 31 03.542328 -33 25 12.92082
 2018-Oct-17 08:12     04 31 03.540157 -33 25 12.94818
 2018-Oct-17 08:13     04 31 03.537986 -33 25 12.97552
 2018-Oct-17 08:14     04 31 03.535815 -33 25 13.00287
 2018-Oct-17 08:15     04 31 03.533644 -33 25 13.03022
 2018-Oct-17 08:16     04 31 03.531474 -33 25 13.05756
 2018-Oct-17 08:17     04 31 03.529303 -33 25 13.08490
 2018-Oct-17 08:18     04 31 03.527132 -33 25 13.11224
 2018-Oct-17 08:19     04 31 03.524961 -33 25 13.13958
 2018-Oct-17 08:20     04 31 03.522790 -33 25 13.16691
 2018-Oct-17 08:21     04 31 03.520620 -33 25 13.19425
 2018-Oct-17 08:22     04 31 03.518449 -33 25 13.22158
 2018-Oct-17 08:23     04 31 03.516278 -33 25 13.24891
 2018-Oct-17 08:24     04 31 03.514107 -33 25 13.27624
 2018-Oct-17 08:25     04 31 03.511937 -33 25 13.30357
 2018-Oct-17 08:26     04 31 03.509766 -33 25 13.33089
 2018-Oct-17 08:27     04 31 03.507595 -33 25 13.35821
 2018-Oct-17 08:28     04 31 03.505425 -33 25 13.38554
 2018-Oct-17 08:29     04 31 03.503254 -33 25 13.41286
 2018-Oct-17 08:30     04 31 03.501084 -33 25 13.44017
 2018-Oct-17 08:31     04 31 03.498913 -33 25 13.46749
 2018-Oct-17 08:32     04 31 03.496742 -33 25 13.49480
 2018-Oct-17 08:33     04 31 03.494572 -33 25 13.52212
 2018-Oct-17 08:34     04 31 03.492401 -33 25 13.54943
 2018-Oct-17 08:35     04 31 03.490231 -33 25 13.57674
 2018-Oct-17 08:36     04 31 03.488061 -33 25 13.60404
 2018-Oct-17 08:37     04 31 03.485890 -33 25 13.63135
 2018-Oct-17 08:38     04 31 03.483720 -33 25 13.65865
 2018-Oct-17 08:39     04 31 03.481549 -33 25 13.68596
 2018-Oct-17 08:40 A   04 31 03.479379 -33 25 13.71326
 2018-Oct-17 08:41 A   04 31 03.477209 -33 25 13.74055
 2018-Oct-17 08:42 A   04 31 03.475039 -33 25 13.76785
 2018-Oct-17 08:43 A   04 31 03.472868 -33 25 13.79515
 2018-Oct-17 08:44 A   04 31 03.470698 -33 25 13.82244
 2018-Oct-17 08:45 A   04 31 03.468528 -33 25 13.84973
 2018-Oct-17 08:46 A   04 31 03.466358 -33 25 13.87702
 2018-Oct-17 08:47 A   04 31 03.464188 -33 25 13.90431
 2018-Oct-17 08:48 A   04 31 03.462018 -33 25 13.93159
 2018-Oct-17 08:49 A   04 31 03.459848 -33 25 13.95888
 2018-Oct-17 08:50 A   04 31 03.457678 -33 25 13.98616
 2018-Oct-17 08:51 A   04 31 03.455508 -33 25 14.01344
 2018-Oct-17 08:52 A   04 31 03.453338 -33 25 14.04072
 2018-Oct-17 08:53 A   04 31 03.451168 -33 25 14.06800
 2018-Oct-17 08:54 A   04 31 03.448998 -33 25 14.09527
 2018-Oct-17 08:55 A   04 31 03.446829 -33 25 14.12255
 2018-Oct-17 08:56 A   04 31 03.444659 -33 25 14.14982
 2018-Oct-17 08:57 A   04 31 03.442489 -33 25 14.17709
 2018-Oct-17 08:58 A   04 31 03.440320 -33 25 14.20436
 2018-Oct-17 08:59 A   04 31 03.438150 -33 25 14.23163
 2018-Oct-17 09:00 A   04 31 03.435981 -33 25 14.25889
 2018-Oct-17 09:01 A   04 31 03.433811 -33 25 14.28616
 2018-Oct-17 09:02 A   04 31 03.431642 -33 25 14.31342
 2018-Oct-17 09:03 A   04 31 03.429473 -33 25 14.34068
 2018-Oct-17 09:04 A   04 31 03.427303 -33 25 14.36794
 2018-Oct-17 09:05 A   04 31 03.425134 -33 25 14.39519
 2018-Oct-17 09:06 A   04 31 03.422965 -33 25 14.42245
 2018-Oct-17 09:07 A   04 31 03.420796 -33 25 14.44970
 2018-Oct-17 09:08 A   04 31 03.418627 -33 25 14.47695
 2018-Oct-17 09:09 A   04 31 03.416458 -33 25 14.50420
 2018-Oct-17 09:10 N   04 31 03.414289 -33 25 14.53145
 2018-Oct-17 09:11 N   04 31 03.412120 -33 25 14.55870
 2018-Oct-17 09:12 N   04 31 03.409951 -33 25 14.58594
 2018-Oct-17 09:13 N   04 31 03.407782 -33 25 14.61319
 2018-Oct-17 09:14 N   04 31 03.405614 -33 25 14.64043
 2018-Oct-17 09:15 N   04 31 03.403445 -33 25 14.66767
 2018-Oct-17 09:16 N   04 31 03.401277 -33 25 14.69491
